NORAD_CAT_ID,OBJECT_NAME,OBJECT_TYPE,EPOCH,MEAN_MOTION,ECCENTRICITY,INCLINATION,RA_OF_ASC_NODE,ARG_OF_PERICENTER,MEAN_ANOMALY,BSTAR,MEAN_MOTION_DOT,MEAN_MOTION_DDOT,TLE_LINE0,TLE_LINE1,TLE_LINE2,SEMIMAJOR_AXIS,PERIOD,APOGEE,PERIGEE,DECAYED
52870.0,STARLINK-4195,PAYLOAD,2024-03-03 01:29:23,15.08835323,0.0001514,53.2154,90.9695,87.48,272.6365,6.5325e-05,7.52e-06,0.0,0 STARLINK-4195,1 52870U 22062AS  24063.06207331  .00000752  00000-0  65325-4 0  9990,2 52870  53.2154  90.9695 0001514  87.4800 272.6365 15.08835323 95216,6917.895,95.438,540.807,538.712,0.0
52870.0,STARLINK-4195,PAYLOAD,2024-03-03 09:26:18,15.08841127,0.0001524,53.2167,89.4819,89.9745,270.1422,6.8629e-05,8.04e-06,0.0,0 STARLINK-4195,1 52870U 22062AS  24063.39327389  .00000804  00000-0  68629-4 0  9990,2 52870  53.2167  89.4819 0001524  89.9745 270.1422 15.08841127 94773,6917.877,95.437,540.796,538.688,0.0
52870.0,STARLINK-4195,PAYLOAD,2024-03-04 01:20:09,15.08849325,0.0001693,53.2169,86.5087,88.7537,271.3649,0.00011576,1.555e-05,0.0,0 STARLINK-4195,1 52870U 22062AS  24064.05566803  .00001555  00000-0  11576-3 0  9992,2 52870  53.2169  86.5087 0001693  88.7537 271.3649 15.08849325 95361,6917.852,95.437,540.888,538.546,0.0
52870.0,STARLINK-4195,PAYLOAD,2024-03-04 07:41:42,15.08853519,0.0001499,53.215,85.3191,86.9422,273.1741,0.00026211,3.887e-05,0.0,0 STARLINK-4195,1 52870U 22062AS  24064.32062656  .00003887  00000-0  26211-3 0  9991,2 52870  53.2150  85.3191 0001499  86.9422 273.1741 15.08853519 94914,6917.839,95.437,540.741,538.667,0.0
52870.0,STARLINK-4195,PAYLOAD,2024-03-04 18:49:24,15.08840615,0.0001768,53.2163,83.2361,83.1228,276.9965,0.00015154,2.125e-05,0.0,0 STARLINK-4195,1 52870U 22062AS  24064.78431329  .00002125  00000-0  15154-3 0  9996,2 52870  53.2163  83.2361 0001768  83.1228 276.9965 15.08840615 95470,6917.879,95.438,540.967,538.52,0.0
52870.0,STARLINK-4195,PAYLOAD,2024-03-05 10:43:16,15.08824974,0.0001971,53.2179,80.2582,123.2674,236.8507,-2.1108e-05,-6.24e-06,0.0,0 STARLINK-4195,1 52870U 22062AS  24065.44672325 -.00000624  00000-0 -21108-4 0  9994,2 52870  53.2179  80.2582 0001971 123.2674 236.8507 15.08824974 95080,6917.926,95.439,541.155,538.428,0.0
52870.0,STARLINK-4195,PAYLOAD,2024-03-06 04:12:30,15.08845873,0.000168,53.2159,76.9922,82.2582,277.8601,0.00013387,1.843e-05,0.0,0 STARLINK-4195,1 52870U 22062AS  24066.17535604  .00001843  00000-0  13387-3 0  9994,2 52870  53.2159  76.9922 0001680  82.2582 277.8601 15.08845873 95684,6917.862,95.437,540.89,538.565,0.0
52870.0,STARLINK-4195,PAYLOAD,2024-03-06 10:34:03,15.08852084,0.0001687,53.2168,75.8006,94.9748,265.1436,0.00040018,6.089e-05,0.0,0 STARLINK-4195,1 52870U 22062AS  24066.44031435  .00006089  00000-0  40018-3 0  9995,2 52870  53.2168  75.8006 0001687  94.9748 265.1436 15.08852084 95235,6917.843,95.437,540.875,538.541,0.0
52870.0,STARLINK-4195,PAYLOAD,2024-03-07 07:14:03,15.08852728,0.0001557,53.2162,71.9361,83.0146,277.1024,0.00039912,6.072e-05,0.0,0 STARLINK-4195,1 52870U 22062AS  24067.30143406  .00006072  00000-0  39912-3 0  9996,2 52870  53.2162  71.9361 0001557  83.0146 277.1024 15.08852728 95362,6917.841,95.437,540.784,538.629,0.0
52870.0,STARLINK-4195,PAYLOAD,2024-03-08 00:43:18,15.08834764,0.0001422,53.2165,68.6632,92.4494,267.6661,-0.00013815,-2.486e-05,0.0,0 STARLINK-4195,1 52870U 22062AS  24068.03007422 -.00002486  00000-0 -13815-3 0  9995,2 52870  53.2165  68.6632 0001422  92.4494 267.6661 15.08834764 95967,6917.896,95.438,540.745,538.778,0.0
52870.0,STARLINK-4195,PAYLOAD,2024-03-08 08:40:14,15.08841967,0.000166,53.2165,67.1794,97.7466,262.3715,0.00075332,0.00011722,0.0,0 STARLINK-4195,1 52870U 22062AS  24068.36127563  .00011722  00000-0  75332-3 0  9993,2 52870  53.2165  67.1794 0001660  97.7466 262.3715 15.08841967 95528,6917.874,95.437,540.888,538.591,0.0
52870.0,STARLINK-4195,PAYLOAD,2024-03-08 16:37:09,15.08839041,0.0001475,53.2157,65.6903,83.6941,276.4219,0.00025552,3.781e-05,0.0,0 STARLINK-4195,1 52870U 22062AS  24068.69247647  .00003781  00000-0  25552-3 0  9990,2 52870  53.2157  65.6903 0001475  83.6941 276.4219 15.08839041 95570,6917.883,95.438,540.769,538.728,0.0
52870.0,STARLINK-4195,PAYLOAD,2024-03-09 05:20:15,15.08839593,0.0001831,53.2174,63.3142,97.7255,262.3945,0.00016514,2.341e-05,0.0,0 STARLINK-4195,1 52870U 22062AS  24069.22239939  .00002341  00000-0  16514-3 0  9994,2 52870  53.2174  63.3142 0001831  97.7255 262.3945 15.08839593 96145,6917.882,95.438,541.013,538.48,0.0
52870.0,STARLINK-4195,PAYLOAD,2024-03-09 06:55:38,15.08839902,0.000182,53.2175,63.0168,96.9164,263.2035,0.00018249,2.617e-05,0.0,0 STARLINK-4195,1 52870U 22062AS  24069.28863947  .00002617  00000-0  18249-3 0  9995,2 52870  53.2175  63.0168 0001820  96.9164 263.2035 15.08839902 95669,6917.881,95.438,541.005,538.487,0.0
52870.0,STARLINK-4195,PAYLOAD,2024-03-09 16:27:57,15.08840573,0.0001591,53.2162,61.23,89.3343,270.7831,0.00024508,3.615e-05,0.0,0 STARLINK-4195,1 52870U 22062AS  24069.68607989  .00003615  00000-0  24508-3 0  9995,2 52870  53.2162  61.2300 0001591  89.3343 270.7831 15.08840573 95723,6917.879,95.438,540.844,538.643,0.0
52870.0,STARLINK-4195,PAYLOAD,2024-03-10 08:21:48,15.08846512,0.0001643,53.2168,58.2573,90.1318,269.9863,0.00025862,3.831e-05,0.0,0 STARLINK-4195,1 52870U 22062AS  24070.34847837  .00003831  00000-0  25862-3 0  9992,2 52870  53.2168  58.2573 0001643  90.1318 269.9863 15.08846512 96317,6917.86,95.437,540.862,538.589,0.0
52870.0,STARLINK-4195,PAYLOAD,2024-03-10 16:18:44,15.08839963,0.0001538,53.2162,56.768,86.7075,273.4093,0.00011549,1.551e-05,0.0,0 STARLINK-4195,1 52870U 22062AS  24070.67968059  .00001551  00000-0  11549-3 0  9992,2 52870  53.2162  56.7680 0001538  86.7075 273.4093 15.08839963 96369,6917.881,95.438,540.809,538.682,0.0
52870.0,STARLINK-4195,PAYLOAD,2024-03-11 06:37:12,15.08840788,0.0001544,53.2166,54.0922,88.4423,271.6746,0.00011907,1.608e-05,0.0,0 STARLINK-4195,1 52870U 22062AS  24071.27584167  .00001608  00000-0  11907-3 0  9994,2 52870  53.2166  54.0922 0001544  88.4423 271.6746 15.08840788 95963,6917.878,95.438,540.811,538.675,0.0
52870.0,STARLINK-4195,PAYLOAD,2024-03-12 04:52:36,15.0884607,0.000159,53.2172,49.9301,91.3051,268.8123,0.00017528,2.503e-05,0.0,0 STARLINK-4195,1 52870U 22062AS  24072.20320020  .00002503  00000-0  17528-3 0  9994,2 52870  53.2172  49.9301 0001590  91.3051 268.8123 15.08846070 96592,6917.862,95.437,540.827,538.627,0.0
52870.0,STARLINK-4195,PAYLOAD,2024-03-12 16:00:18,15.08838418,0.000158,53.2192,47.8432,107.694,252.4225,8.3815e-05,1.046e-05,0.0,0 STARLINK-4195,1 52870U 22062AS  24072.66688200  .00001046  00000-0  83815-4 0  9995,2 52870  53.2192  47.8432 0001580 107.6940 252.4225 15.08838418 96660,6917.885,95.438,540.843,538.657,0.0
52870.0,STARLINK-4195,PAYLOAD,2024-03-13 04:43:23,15.08841365,0.0001482,53.2176,45.4687,95.8762,264.2399,0.00013214,1.816e-05,0.0,0 STARLINK-4195,1 52870U 22062AS  24073.19680311  .00001816  00000-0  13214-3 0  9999,2 52870  53.2176  45.4687 0001482  95.8762 264.2399 15.08841365 96252,6917.876,95.437,540.766,538.716,0.0
52870.0,STARLINK-4195,PAYLOAD,2024-03-13 22:12:38,15.08839355,0.0001446,53.2179,42.196,102.2462,257.8692,0.00010152,1.328e-05,0.0,0 STARLINK-4195,1 52870U 22062AS  24073.92544498  .00001328  00000-0  10152-3 0  9991,2 52870  53.2179  42.1960 0001446 102.2462 257.8692 15.08839355 96365,6917.882,95.438,540.748,538.747,0.0
52870.0,STARLINK-4195,PAYLOAD,2024-03-14 04:34:10,15.08848188,0.0001394,53.2177,41.009,88.0875,272.0276,0.0002436,3.592e-05,0.0,0 STARLINK-4195,1 52870U 22062AS  24074.19040277  .00003592  00000-0  24360-3 0  9998,2 52870  53.2177  41.0090 0001394  88.0875 272.0276 15.08848188 96895,6917.855,95.437,540.685,538.756,0.0
52870.0,STARLINK-4195,PAYLOAD,2024-03-14 22:03:25,15.08840656,0.0001399,53.2177,37.738,87.7796,272.3357,0.00013621,1.881e-05,0.0,0 STARLINK-4195,1 52870U 22062AS  24074.91904622  .00001881  00000-0  13621-3 0  9998,2 52870  53.2177  37.7380 0001399  87.7796 272.3357 15.08840656 96516,6917.878,95.438,540.711,538.776,0.0
52870.0,STARLINK-4195,PAYLOAD,2024-03-15 04:24:57,15.08846728,0.0001438,53.2183,36.5512,89.8541,270.2616,0.0001874,2.696e-05,0.0,0 STARLINK-4195,1 52870U 22062AS  24075.18400315  .00002696  00000-0  18740-3 0  9990,2 52870  53.2183  36.5512 0001438  89.8541 270.2616 15.08846728 97042,6917.86,95.437,540.72,538.73,0.0
52870.0,STARLINK-4195,PAYLOAD,2024-03-16 02:40:21,15.08840188,0.0001456,53.2186,32.3875,89.7968,270.3191,1.8182e-05,1e-08,0.0,0 STARLINK-4195,1 52870U 22062AS  24076.11136553  .00000001  00000-0  18182-4 0  9993,2 52870  53.2186  32.3875 0001456  89.7968 270.3191 15.08840188 97181,6917.88,95.438,540.752,538.738,0.0
52870.0,STARLINK-4195,PAYLOAD,2024-03-17 04:06:32,15.08843621,0.0001427,53.2191,27.6288,94.9704,265.1451,6.9492e-05,8.18e-06,0.0,0 STARLINK-4195,1 52870U 22062AS  24077.17120645  .00000818  00000-0  69492-4 0  9991,2 52870  53.2191  27.6288 0001427  94.9704 265.1451 15.08843621 97340,6917.869,95.437,540.722,538.747,0.0
52870.0,STARLINK-4195,PAYLOAD,2024-03-17 07:17:18,15.08844388,0.0001428,53.2191,27.0313,91.4625,268.653,6.7755e-05,7.91e-06,0.0,0 STARLINK-4195,1 52870U 22062AS  24077.30368553  .00000791  00000-0  67755-4 0  9998,2 52870  53.2191  27.0313 0001428  91.4625 268.6530 15.08844388 96872,6917.867,95.437,540.72,538.744,0.0
52870.0,STARLINK-4195,PAYLOAD,2024-03-18 03:57:18,15.08845634,0.0001549,53.2196,23.1647,80.1664,279.9503,0.00017015,2.421e-05,0.0,0 STARLINK-4195,1 52870U 22062AS  24078.16480316  .00002421  00000-0  17015-3 0  9990,2 52870  53.2196  23.1647 0001549  80.1664 279.9503 15.08845634 97002,6917.863,95.437,540.8,538.657,0.0
52870.0,STARLINK-4195,PAYLOAD,2024-03-18 19:51:10,15.08840563,0.0001407,53.2196,20.1932,100.2681,259.847,3.6476e-05,2.93e-06,0.0,0 STARLINK-4195,1 52870U 22062AS  24078.82720993  .00000293  00000-0  36476-4 0  9999,2 52870  53.2196  20.1932 0001407 100.2681 259.8470 15.08840563 97592,6917.879,95.438,540.717,538.77,0.0
